ORBCOMM FM33            
1 25983U 99065D   24277.84309662  .00007386  00000+0  24382-2 0  9990
2 25983  45.0271 136.4914 0008440 207.7445 152.2954 14.38491009299200
ORBCOMM FM36            
1 25984U 99065E   24278.85867074  .00009455  00000+0  32340-2 0  9991
2 25984  45.0388 219.6464 0002899  68.8347 291.2811 14.36527727298270
ORBCOMM FM35            
1 25985U 99065F   24278.53713170  .00006400  00000+0  22361-2 0  9993
2 25985  45.0389 224.4082 0002667 223.0196 137.0444 14.35841251298215
ORBCOMM FM34            
1 25986U 99065G   24278.85729638  .00007323  00000+0  25508-2 0  9996
2 25986  45.0381 223.4460 0002076 138.8673 221.2332 14.35854220298227
ORBCOMM FM38            
1 33060U 08031A   24278.45996150  .00010125  00000+0  13853-2 0  9996
2 33060  48.4388  92.0141 0004582  14.4276 345.6768 14.78890791876867
ORBCOMM FM41            
1 33061U 08031B   24278.46934406  .00009034  00000+0  12482-2 0  9998
2 33061  48.4421  98.9467 0003937 356.8060  21.6018 14.78589389876361
ORBCOMM FM29            
1 33062U 08031C   24277.85348515  .00010411  00000+0  14346-2 0  9993
2 33062  48.4374 109.8919 0005687 356.8428  17.4711 14.78560888876181
ORBCOMM FM39            
1 33063U 08031D   24278.53101741  .00008536  00000+0  12137-2 0  9999
2 33063  48.4385 128.3856 0006921 334.5961  25.4612 14.77413436875966
